[{"OBJECT_NAME":"OBJECT F","OBJECT_ID":"2023-072F","EPOCH":"2026-03-09T23:31:37.259904","MEAN_MOTION":15.29470958,"ECCENTRICITY":0.00062878,"INCLINATION":97.5173,"RA_OF_ASC_NODE":265.798,"ARG_OF_PERICENTER":19.0017,"MEAN_ANOMALY":341.1456,"EPHEMERIS_TYPE":0,"CLASSIFICATION_TYPE":"U","NORAD_CAT_ID":56748,"ELEMENT_SET_NO":999,"REV_AT_EPOCH":15460,"BSTAR":0.00043416252,"MEAN_MOTION_DOT":0.00012341,"MEAN_MOTION_DDOT":0},{"OBJECT_NAME":"STARLINK-31681","OBJECT_ID":"2024-090S","EPOCH":"2026-03-09T13:55:11.656128","MEAN_MOTION":15.27594916,"ECCENTRICITY":0.000127,"INCLINATION":43.0005,"RA_OF_ASC_NODE":177.1655,"ARG_OF_PERICENTER":261.5007,"MEAN_ANOMALY":98.5701,"EPHEMERIS_TYPE":0,"CLASSIFICATION_TYPE":"U","NORAD_CAT_ID":59746,"ELEMENT_SET_NO":999,"REV_AT_EPOCH":10350,"BSTAR":-2.527e-5,"MEAN_MOTION_DOT":-9.58e-6,"MEAN_MOTION_DDOT":0}]
